{
    "links": {
        "self": "http://www.neowsapp.com/rest/v1/neo/3841885?api_key=iIulBulltgU6a56xZRHN4H3l9WmuAYTsLGpBGhQ2"
    },
    "id": "3841885",
    "neo_reference_id": "3841885",
    "name": "(2019 JG6)",
    "designation": "2019 JG6",
    "nasa_jpl_url": "http://ssd.jpl.nasa.gov/sbdb.cgi?sstr=3841885",
    "absolute_magnitude_h": 25.6,
    "estimated_diameter": {
        "kilometers": {
            "estimated_diameter_min": 0.0201629919,
            "estimated_diameter_max": 0.0450858206
        },
        "meters": {
            "estimated_diameter_min": 20.1629919443,
            "estimated_diameter_max": 45.0858206172
        },
        "miles": {
            "estimated_diameter_min": 0.0125286985,
            "estimated_diameter_max": 0.0280150214
        },
        "feet": {
            "estimated_diameter_min": 66.1515504905,
            "estimated_diameter_max": 147.9193637137
        }
    },
    "is_potentially_hazardous_asteroid": false,
    "close_approach_data": [
        {
            "close_approach_date": "2019-05-17",
            "close_approach_date_full": "2019-May-17 05:42",
            "epoch_date_close_approach": 1558071720000,
            "relative_velocity": {
                "kilometers_per_second": "7.7310413439",
                "kilometers_per_hour": "27831.748838155",
                "miles_per_hour": "17293.5663822414"
            },
            "miss_distance": {
                "astronomical": "0.070037746",
                "lunar": "27.244683194",
                "kilometers": "10477497.62120102",
                "miles": "6510415.129853276"
            },
            "orbiting_body": "Earth"
        }
    ],
    "orbital_data": {
        "orbit_id": "2",
        "orbit_determination_date": "2019-05-15 07:25:03",
        "first_observation_date": "2019-05-11",
        "last_observation_date": "2019-05-15",
        "data_arc_in_days": 4,
        "observations_used": 13,
        "orbit_uncertainty": "8",
        "minimum_orbit_intersection": ".0699815",
        "jupiter_tisserand_invariant": "4.123",
        "epoch_osculation": "2458615.5",
        "eccentricity": ".3683962909509952",
        "semi_major_axis": "1.687158871470156",
        "inclination": "11.0641775025961",
        "ascending_node_longitude": "228.0750024405353",
        "orbital_period": "800.4466598498376",
        "perihelion_distance": "1.065615800975484",
        "perihelion_argument": "22.95206584007477",
        "aphelion_distance": "2.308701941964829",
        "perihelion_time": "2458635.097207021785",
        "mean_anomaly": "351.1861778158134",
        "mean_motion": ".4497488940331582",
        "equinox": "J2000",
        "orbit_class": {
            "orbit_class_type": "AMO",
            "orbit_class_description": "Near-Earth asteroid orbits similar to that of 1221 Amor",
            "orbit_class_range": "1.017 AU < q (perihelion) < 1.3 AU"
        }
    },
    "is_sentry_object": false
}